ONEWEB-0102             
1 47258U 20100A   24260.57227016 -.00000394  00000+0 -11307-2 0  9994
2 47258  87.8876 117.8797 0001892  81.8170 278.3173 13.12442978180963
ONEWEB-0109             
1 47259U 20100B   24260.65662042 -.00000119  00000+0 -36541-3 0  9999
2 47259  87.8877 117.8285 0001897  83.2231 276.9113 13.12442931180806
ONEWEB-0110             
1 47260U 20100C   24260.60633161  .00000050  00000+0  10370-3 0  9990
2 47260  87.8872 117.8392 0001764  85.5623 274.5707 13.12441592180967
ONEWEB-0111             
1 47261U 20100D   24260.56091293 -.00000633  00000+0 -17945-2 0  9993
2 47261  87.8876 117.8480 0001788  81.4173 278.7158 13.12442740180794
ONEWEB-0114             
1 47262U 20100E   24260.59175742  .00000333  00000+0  88937-3 0  9994
2 47262  87.8873 117.8542 0002099  80.8225 279.3141 13.12443804180755
ONEWEB-0117             
1 47263U 20100F   24260.65986861  .00000078  00000+0  18150-3 0  9990
2 47263  87.8878 117.8198 0001689  81.1244 279.0075 13.12442892180778
ONEWEB-0118             
1 47264U 20100G   24260.61607546  .00000108  00000+0  26535-3 0  9997
2 47264  87.8879 117.8319 0001935  70.8567 289.2771 13.12441230180964
ONEWEB-0119             
1 47265U 20100H   24260.56740413 -.00000499  00000+0 -14222-2 0  9997
2 47265  87.8875 117.8799 0001756  82.6412 277.4916 13.12443453180930
